ONEWEB-0589             
1 54655U 22166P   25225.71783119  .00000007  00000+0 -15283-4 0  9995
2 54655  87.9260 305.3415 0002725 111.3433 248.7992 13.21826950130925
ONEWEB-0590             
1 54656U 22166Q   25225.74132447  .00000004  00000+0 -20705-4 0  9993
2 54656  87.9257 305.3140 0001784 111.5348 248.5976 13.21823827130917
ONEWEB-0591             
1 54657U 22166R   25225.75409859 -.00000080  00000+0 -22402-3 0  9999
2 54657  87.9259 305.3348 0002104 101.8344 258.3026 13.21826714130941
ONEWEB-0592             
1 54658U 22166S   25225.75725531 -.00000059  00000+0 -17394-3 0  9998
2 54658  87.9265 305.2868 0002072 102.7431 257.3935 13.21826657130827
ONEWEB-0593             
1 54659U 22166T   25225.93230074  .00000003  00000+0 -23217-4 0  9992
2 54659  87.9257 305.2894 0002175 101.5877 258.5501 13.21826879130955
ONEWEB-0594             
1 54660U 22166U   25225.72413978  .00000018  00000+0  12064-4 0  9990
2 54660  87.9261 305.3463 0002051  96.4424 263.6944 13.21826098130948
ONEWEB-0595             
1 54661U 22166V   25225.92913904  .00000010  00000+0 -73385-5 0  9994
2 54661  87.9258 305.2817 0001831  97.8943 262.2399 13.21827292130949
ONEWEB-0596             
1 54662U 22166W   25225.75094085 -.00000002  00000+0 -36992-4 0  9990
2 54662  87.9262 305.3317 0001923 100.0698 260.0653 13.21826988130925
ONEWEB-0597             
1 54663U 22166X   25225.73203109  .00000046  00000+0  78718-4 0  9996
2 54663  87.9263 305.3390 0002120 101.9545 258.1826 13.21827202130929
ONEWEB-0600             
1 54664U 22166Y   25225.71467825  .00000033  00000+0  48845-4 0  9996
2 54664  87.9253 305.3378 0002179  97.2582 262.8799 13.21826643130892
ONEWEB-0601             
1 54665U 22166Z   25225.93386291  .00000021  00000+0  18786-4 0  9996
2 54665  87.9260 305.3094 0002311 104.5995 255.5395 13.21827973131118
ONEWEB-0602             
1 54666U 22166AA  25225.74755401 -.00000046  00000+0 -14232-3 0  9999
2 54666  87.9265 305.3474 0002481  95.4164 264.7253 13.21875201130931
ONEWEB-0603             
1 54667U 22166AB  25225.75250650 -.00000072  00000+0 -20669-3 0  9997
2 54667  87.9257 305.2824 0002246 101.4334 258.7052 13.21828065130865
ONEWEB-0604             
1 54668U 22166AC  25225.73991553  .00000000  00000+0 -30492-4 0  9996
2 54668  87.9263 305.3079 0002253  98.0930 262.0459 13.21826611130827
ONEWEB-0605             
1 54669U 22166AD  25225.73359232  .00000019  00000+0  14829-4 0  9994
2 54669  87.9261 305.3399 0002397 114.0850 246.0535 13.21822752130896
ONEWEB-0606             
1 54670U 22166AE  25225.75568361 -.00000071  00000+0 -20328-3 0  9993
2 54670  87.9260 305.3463 0001829  97.1410 262.9932 13.21826704130957
ONEWEB-0607             
1 54671U 22166AF  25225.72258491  .00000000  00000+0 -31189-4 0  9990
2 54671  87.9259 305.3173 0002182 100.6167 259.5212 13.21825010130925
ONEWEB-0608             
1 54672U 22166AG  25225.72884524  .00000060  00000+0  11419-3 0  9991
2 54672  87.9252 305.3015 0002514 106.6632 253.4778 13.21828738130937
ONEWEB-0610             
1 54673U 22166AH  25225.93701978  .00000020  00000+0  15947-4 0  9993
2 54673  87.9260 305.2952 0002527 108.2445 251.8964 13.21821140130861
ONEWEB-0611             
1 54674U 22166AJ  25225.93071259  .00000069  00000+0  13448-3 0  9992
2 54674  87.9257 305.2929 0001857  92.7871 267.3476 13.21827652130850
ONEWEB-0612             
1 54675U 22166AK  25225.71625750  .00000043  00000+0  72851-4 0  9996
2 54675  87.9260 305.3130 0002217 102.1670 257.9712 13.21826501130810
ONEWEB-0615             
1 54676U 22166AL  25225.92440243  .00000014  00000+0  22529-5 0  9998
2 54676  87.9259 305.2980 0002004  97.4411 262.6950 13.21827974130850
ONEWEB-0655             
1 54677U 22166AM  25225.74622517 -.00000062  00000+0 -18177-3 0  9992
2 54677  87.9262 305.3385 0002309  94.1074 266.0324 13.21824912130821
ONEWEB-0659             
1 54678U 22166AN  25225.91495305 -.00000031  00000+0 -10574-3 0  9994
2 54678  87.9259 305.3058 0001840  99.1674 260.9668 13.21827022130936
ONEWEB-0685             
1 54679U 22166AP  25225.91652727 -.00001232  00000+0 -30146-2 0  9998
2 54679  87.9259 305.3008 0002223 102.9535 257.1847 13.21832152130822
ONEWEB-0712             
1 54680U 22166AQ  25225.88030648 -.00000016  00000+0 -74769-4 0  9998
2 54680  87.9034 290.0190 0002405  85.5854 274.5552 13.16593404131622
ONEWEB-0714             
1 54681U 22166AR  25225.92283234  .00000064  00000+0  12382-3 0  9998
2 54681  87.9260 305.2930 0002225  98.9652 261.1734 13.21827568130944
ONEWEB-0532             
1 55140U 23004A   25225.94745609  .00000083  00000+0  18012-3 0  9999
2 55140  87.9030  66.9967 0001676 101.2833 258.8486 13.17651548127120
ONEWEB-0533             
1 55141U 23004B   25225.91670216 -.00000182  00000+0 -54159-3 0  9992
2 55141  87.8860  51.7345 0001988  90.1192 270.0165 13.12440711127755
ONEWEB-0541             
1 55142U 23004C   25225.85890723 -.00000529  00000+0 -15290-2 0  9990
2 55142  87.8794  82.2964 0001550  83.1435 276.9869 13.11417186125668
ONEWEB-0543             
1 55143U 23004D   25225.93986040 -.00000016  00000+0 -73705-4 0  9996
2 55143  87.9122  36.5380 0002006  85.3822 274.7539 13.18685172129203
ONEWEB-0544             
1 55144U 23004E   25225.93325926  .00000080  00000+0  16927-3 0  9998
2 55144  87.9123  36.5297 0001737  84.2315 275.9016 13.18685692129207
ONEWEB-0560             
1 55145U 23004F   25225.92666752  .00000034  00000+0  52636-4 0  9990
2 55145  87.9129  36.5072 0001695  82.1105 278.0220 13.18685470129218
ONEWEB-0565             
1 55146U 23004G   25225.92005906  .00000031  00000+0  46768-4 0  9995
2 55146  87.9121  36.5648 0001271  94.4796 265.6481 13.18687113129208
ONEWEB-0567             
1 55147U 23004H   25225.91346391  .00000036  00000+0  57827-4 0  9994
2 55147  87.9125  36.5244 0001445  86.1859 273.9438 13.18686798129208
ONEWEB-0569             
1 55148U 23004J   25225.93623840 -.00000084  00000+0 -26430-3 0  9994
2 55148  87.8986  21.2378 0001303  61.1825 298.9434 13.13470550129846
ONEWEB-0570             
1 55149U 23004K   25225.90357097  .00000045  00000+0  81080-4 0  9998
2 55149  87.9124  36.5282 0001543 109.9728 250.1571 13.18685108129196
ONEWEB-0571             
1 55150U 23004L   25225.89695790  .00000066  00000+0  13478-3 0  9991
2 55150  87.9119  36.5354 0000668  62.7267 297.3933 13.18687401129208
ONEWEB-0572             
1 55151U 23004M   25225.82596832 -.00000078  00000+0 -23438-3 0  9994
2 55151  87.9034  67.0299 0001569  89.4488 270.6823 13.17643832127001
ONEWEB-0573             
1 55152U 23004N   25225.89037324  .00000029  00000+0  40454-4 0  9990
2 55152  87.9120  36.5434 0000977 105.0900 255.0341 13.18687214129193
ONEWEB-0588             
1 55153U 23004P   25225.88378116  .00000068  00000+0  13916-3 0  9992
2 55153  87.9126  36.5291 0001480 103.9856 256.1441 13.18686856129192
ONEWEB-0598             
1 55154U 23004Q   25225.83686748  .00000226  00000+0  60325-3 0  9993
2 55154  87.8786  82.3361 0001347  64.6528 295.4739 13.11414260125612
ONEWEB-0599             
1 55155U 23004R   25225.86309433  .00000047  00000+0  89040-4 0  9997
2 55155  87.9031  67.0267 0001749  80.0885 280.0444 13.17650600127011
ONEWEB-0614             
1 55156U 23004S   25225.60289506  .00000453  00000+0  12420-2 0  9995
2 55156  87.8790  82.3928 0001769  94.5193 265.6137 13.11414733125522
ONEWEB-0616             
1 55157U 23004T   25225.60154542  .00000059  00000+0  11967-3 0  9995
2 55157  87.9032  67.0699 0002543  67.3431 292.7969 13.17648736127199
ONEWEB-0617             
1 55158U 23004U   25225.89621572  .00000467  00000+0  12820-2 0  9990
2 55158  87.8784  82.3126 0001509  93.6383 266.4917 13.11416158125584
ONEWEB-0618             
1 55159U 23004V   25225.72022557  .00001234  00000+0  21135-3 0  9994
2 55159  86.9100 301.1318 0014038 356.2170   3.8936 14.67966210136009
ONEWEB-0619             
1 55160U 23004W   25225.93736814 -.00002035  00000+0 -52771-2 0  9998
2 55160  87.9026  66.9780 0002181  94.1436 265.9945 13.17631913127135
ONEWEB-0620             
1 55161U 23004X   25225.89112757  .00000432  00000+0  11826-2 0  9991
2 55161  87.8789  82.3351 0001494  81.7596 278.3702 13.11417324125557
ONEWEB-0621             
1 55162U 23004Y   25225.84195822  .00000023  00000+0  28309-4 0  9993
2 55162  87.8795  82.3019 0001885  89.5371 270.5973 13.11414475125522
ONEWEB-0622             
1 55163U 23004Z   25225.84703323 -.00000173  00000+0 -52281-3 0  9998
2 55163  87.8784  82.3232 0001524 110.7030 249.4261 13.11414076125518
ONEWEB-0623             
1 55164U 23004AA  25225.93227096  .00000049  00000+0  93248-4 0  9996
2 55164  87.9023  67.0358 0002012 108.9284 251.2065 13.17651309127128
ONEWEB-0624             
1 55165U 23004AB  25225.91914231 -.00000181  00000+0 -53518-3 0  9993
2 55165  87.8854  51.7233 0001788  90.6070 269.5264 13.12942155127750
ONEWEB-0625             
1 55166U 23004AC  25225.92215808  .00000042  00000+0  76136-4 0  9995
2 55166  87.9023  67.0351 0001874  82.9015 277.2329 13.17649186127111
ONEWEB-0626             
1 55167U 23004AD  25225.83609644  .00000027  00000+0  37039-4 0  9993
2 55167  87.9024  67.0509 0001317  73.9503 286.1773 13.17649198127106
ONEWEB-0627             
1 55168U 23004AE  25225.82429175  .00000004  00000+0 -22244-4 0  9990
2 55168  87.9024  67.0549 0001794 106.5766 253.5563 13.17649710127109
ONEWEB-0628             
1 55169U 23004AF  25225.93955072 -.00000342  00000+0 -98729-3 0  9999
2 55169  87.8863  51.7140 0002120 108.7238 251.4121 13.12443560127735
ONEWEB-0629             
1 55170U 23004AG  25225.79981072  .00000039  00000+0  68301-4 0  9999
2 55170  87.9034  67.0514 0002122  90.5160 269.6215 13.17650889127102
ONEWEB-0631             
1 55171U 23004AH  25225.87717050 -.00000007  00000+0 -51327-4 0  9999
2 55171  87.9137  36.4655 0001282  99.3892 260.7385 13.18687631129173
